     3.04           N: GNSS NAV DATA    C: BDS              RINEX VERSION / TYPE
TPP                 Reference Data Shop 20260323 133529 UTC PGM / RUN BY / DATE 
                                                            COMMENT             
                                                            COMMENT             
                                                            COMMENT             
BDSA    .2980E-07   .7451E-08  -.1788E-06   .0000E+00       IONOSPHERIC CORR    
BDSB    .1331E+06   .0000E+00  -.2621E+06   .2621E+06       IONOSPHERIC CORR    
BDUT   .0000000000E+00 -.888178420E-15 442368 2513          TIME SYSTEM CORR    
                                                            END OF HEADER       
C35 2026 03 22 10 00 00 -.315722892992E-03 -.148290268953E-10  .000000000000E+00
      .100000000000E+01  .151562500000E+01  .429446459597E-08 -.258678659548E+01
      .158324837685E-06  .977875199169E-03  .341329723597E-06  .528261957932E+04
      .360000000000E+05  .279396772385E-08  .215635210077E+01  .214204192162E-07
      .945122853783E+00  .347125000000E+03  .779991428837E+00 -.741066582683E-08
     -.151077721565E-09  .000000000000E+00  .105500000000E+04  .000000000000E+00
      .200000000000E+01  .000000000000E+00 -.330000000000E-08  .000000000000E+00
      .360180000000E+05  .100000000000E+01  .000000000000E+00  .000000000000E+00
C36 2026 03 22 10 00 00  .294406083412E-03 -.246380693625E-11  .000000000000E+00
      .100000000000E+01 -.162500000000E+02  .414945855589E-08  .207982354253E+01
     -.664498656988E-06  .572000397369E-03  .115269795060E-04  .528265427971E+04
      .360000000000E+05 -.232830643654E-08  .100223249261E+00 -.232830643654E-07
      .945953091978E+00  .118750000000E+03 -.990160491153E+00 -.681742683033E-08
     -.543594071446E-09  .000000000000E+00  .105500000000E+04  .000000000000E+00
      .200000000000E+01  .000000000000E+00 -.209000000000E-07 -.208000000000E-07
      .360330000000E+05  .100000000000E+01  .000000000000E+00  .000000000000E+00
C37 2026 03 22 10 00 00 -.947496853769E-03 -.828048740686E-11  .000000000000E+00
      .100000000000E+01  .765625000000E+00  .425196282560E-08  .279578283638E+01
      .512227416039E-07  .560397631489E-03  .118813477457E-04  .528266815186E+04
      .360000000000E+05 -.119674950838E-06  .100084538294E+00  .284053385258E-07
      .945967427112E+00  .112640625000E+03 -.966929631472E-01 -.684207071399E-08
     -.563237746827E-09  .000000000000E+00  .105500000000E+04  .000000000000E+00
      .200000000000E+01  .000000000000E+00 -.168000000000E-07 -.168000000000E-07
      .360330000000E+05  .100000000000E+01  .000000000000E+00  .000000000000E+00
C38 2026 03 22 10 00 00  .280009699054E-03  .204103400847E-11  .000000000000E+00
      .100000000000E+01 -.311015625000E+03 -.103575742917E-10  .306898298517E+01
     -.103488564491E-04  .237265578471E-02  .327550806105E-04  .649363467979E+04
      .360000000000E+05 -.234693288803E-06 -.246069986891E+01  .181142240763E-06
      .102251857134E+01 -.747281250000E+03 -.219472324824E+01 -.142684514811E-08
      .736102090178E-09  .000000000000E+00  .105500000000E+04  .000000000000E+00
      .200000000000E+01  .000000000000E+00  .220000000000E-08  .220000000000E-08
      .360330000000E+05  .100000000000E+01  .000000000000E+00  .000000000000E+00
C39 2026 03 22 10 00 00 -.211359001696E-04 -.589750470681E-12  .000000000000E+00
      .100000000000E+01 -.186734375000E+03  .151292016205E-08  .133261863724E+01
     -.596325844526E-05  .384508783463E-02  .151651911437E-04  .649292960358E+04
      .360000000000E+05  .847503542900E-07 -.346497110755E+00  .267755240202E-06
      .964679742463E+00 -.228562500000E+03 -.259124436581E+01 -.188972157163E-08
     -.950396730696E-09  .000000000000E+00  .105500000000E+04  .000000000000E+00
      .200000000000E+01  .000000000000E+00  .630000000000E-08  .000000000000E+00
      .360180000000E+05  .100000000000E+01  .000000000000E+00  .000000000000E+00
C40 2026 03 22 10 00 00 -.217360677198E-03 -.308375547320E-11  .000000000000E+00
      .100000000000E+01  .481484375000E+03  .162756779473E-08 -.341184528139E+00
      .154520384967E-04  .410819519311E-02 -.134157016873E-04  .649362407112E+04
      .360000000000E+05  .187661498785E-06  .178638266546E+01 -.404193997383E-06
      .958271327413E+00  .650781250000E+03 -.302865709534E+01 -.303191200559E-08
      .254296306748E-09  .000000000000E+00  .105500000000E+04  .000000000000E+00
      .200000000000E+01  .000000000000E+00  .500000000000E-09  .000000000000E+00
      .360180000000E+05  .100000000000E+01  .000000000000E+00  .000000000000E+00
C41 2026 03 22 10 00 00 -.939604127779E-03  .376587649953E-12  .000000000000E+00
      .100000000000E+01 -.169218750000E+02  .324334938423E-08  .392107167489E+00
     -.711064785719E-06  .183280929923E-02  .101528130472E-04  .528263051796E+04
      .360000000000E+05 -.176951289177E-07 -.198720948318E+01  .162981450558E-07
      .985528434621E+00  .163515625000E+03 -.111248426620E+01 -.647455540551E-08
      .751102715014E-09  .000000000000E+00  .105500000000E+04  .000000000000E+00
      .200000000000E+01  .000000000000E+00 -.239000000000E-07  .000000000000E+00
      .360180000000E+05  .100000000000E+01  .000000000000E+00  .000000000000E+00
C42 2026 03 22 10 00 00 -.899253645912E-03  .221334062189E-11  .000000000000E+00
      .100000000000E+01  .939062500000E+01  .329799451757E-08  .172091473197E+01
      .370666384697E-06  .160798092838E-02  .103684142232E-04  .528263141060E+04
      .360000000000E+05 -.144354999065E-07 -.198660690723E+01  .414438545704E-07
      .985556484612E+00  .164500000000E+03 -.877349141959E+00 -.647348393230E-08
      .722887254013E-09  .000000000000E+00  .105500000000E+04  .000000000000E+00
      .200000000000E+01  .000000000000E+00 -.327000000000E-07 -.327000000000E-07
      .360330000000E+05  .100000000000E+01  .000000000000E+00  .000000000000E+00
C43 2026 03 22 10 00 00  .134536414407E-03  .636823926925E-12  .000000000000E+00
      .100000000000E+01  .290625000000E+01  .446732893932E-08  .122239374037E+01
      .908039510250E-07  .688178464770E-03 -.361818820238E-06  .528265984917E+04
      .360000000000E+05 -.121071934700E-07  .215313514098E+01 -.922009348869E-07
      .941968164572E+00  .363750000000E+03  .907824518261E+00 -.755210028958E-08
     -.212508851847E-09  .000000000000E+00  .105500000000E+04  .000000000000E+00
      .200000000000E+01  .000000000000E+00 -.380000000000E-08 -.380000000000E-08
      .360330000000E+05  .100000000000E+01  .000000000000E+00  .000000000000E+00
C44 2026 03 22 10 00 00  .849913572892E-03 -.891198226327E-11  .000000000000E+00
      .100000000000E+01 -.559375000000E+01  .446982904346E-08  .287429316731E+01
     -.216998159885E-06  .895592616871E-03 -.304542481899E-06  .528261820221E+04
      .360000000000E+05  .642612576485E-07  .215377964710E+01  .204890966415E-07
      .942435486438E+00  .358437500000E+03  .893923440574E+00 -.748424032008E-08
     -.152149194768E-09  .000000000000E+00  .105500000000E+04  .000000000000E+00
      .200000000000E+01  .000000000000E+00 -.190000000000E-08  .000000000000E+00
      .360180000000E+05  .100000000000E+01  .000000000000E+00  .000000000000E+00
C45 2026 03 22 10 00 00 -.756884925067E-03 -.200408578621E-10  .000000000000E+00
      .100000000000E+01 -.345312500000E+01  .397838000121E-08 -.145207988976E+00
     -.162050127983E-06  .543903093785E-03  .117551535368E-04  .528266877556E+04
      .360000000000E+05 -.596046447754E-07  .106896629497E+00  .740401446819E-07
      .949901205049E+00  .117812500000E+03  .495630177695E+00 -.671170814101E-08
     -.539665336370E-09  .000000000000E+00  .105500000000E+04  .000000000000E+00
      .200000000000E+01  .000000000000E+00  .190000000000E-07  .000000000000E+00
      .360180000000E+05  .100000000000E+01  .000000000000E+00  .000000000000E+00
C49 2026 03 22 10 00 00 -.916317454539E-03 -.599991167860E-10  .000000000000E+00
      .100000000000E+01  .121875000000E+01  .427446376286E-08  .759594929046E+00
      .586733222008E-07  .427044811659E-03 -.367872416973E-06  .528263533211E+04
      .360000000000E+05 -.912696123123E-07  .219499006987E+01 -.866129994392E-07
      .951729611267E+00  .367593750000E+03  .948538967918E+00 -.742245203206E-08
     -.201794119821E-09  .000000000000E+00  .105500000000E+04  .000000000000E+00
      .200000000000E+01  .100000000000E+01  .900000018955E-09  .900000000000E-09
      .360000000000E+05  .100000000000E+01  .000000000000E+00  .000000000000E+00
C50 2026 03 22 10 00 00 -.388937885873E-03  .810818079344E-11  .000000000000E+00
      .100000000000E+01  .130000000000E+02  .357014871102E-08  .166845092744E+01
      .433530658484E-06  .357398297638E-03  .101705081761E-04  .528264523125E+04
      .360000000000E+05 -.516884028912E-07 -.199468675300E+01  .153668224812E-07
      .971448940908E+00  .160687500000E+03 -.444991898899E+00 -.663063333535E-08
      .709672417848E-09  .000000000000E+00  .105500000000E+04  .000000000000E+00
      .200000000000E+01  .100000000000E+01  .315000000000E-07  .315000000000E-07
      .360330000000E+05  .100000000000E+01  .000000000000E+00  .000000000000E+00
C60 2026 03 22 10 00 00  .326195731759E-06 -.115463194561E-13  .000000000000E+00
      .100000000000E+01  .904531250000E+02  .114594059017E-07  .748826819163E+00
      .297417864203E-05  .259575084783E-03 -.283215194941E-04  .649344471169E+04
      .360000000000E+05 -.161584466696E-06 -.105341298590E+01 -.117812305689E-06
      .886276792643E-01  .873687500000E+03 -.195852590796E+01 -.105215096917E-07
      .115004790411E-09  .000000000000E+00  .105500000000E+04  .000000000000E+00
      .200000000000E+01  .000000000000E+00  .474999986011E-07  .475000000000E-07
      .360000000000E+05  .100000000000E+01  .000000000000E+00  .000000000000E+00
